start=new Date('2022-10-06T00:00:00.000Z').valueOf();
sats=[{"SEMIMAJOR_AXIS":"6925.350","EPOCH":"2022-10-05T12:47:01.811904","ECCENTRICITY":"0.00014470","CLASSIFICATION_TYPE":"U","MEAN_ANOMALY":"293.4594","PERIOD":"95.592","ELEMENT_SET_NO":"999","OBJECT_ID":"2021-027BC","MEAN_MOTION_DOT":"-0.00001847","OBJECT_TYPE":"PAYLOAD","TIME_SYSTEM":"UTC","TLE_LINE2":"2 48142  53.0581   8.2916 0001447  66.6547 293.4594 15.06399404 84121","FILE":"3592692","SITE":"AFETR","INCLINATION":"53.0581","MEAN_MOTION":"15.06399404","MEAN_ELEMENT_THEORY":"SGP4","MEAN_MOTION_DDOT":"0.0000000000000","TLE_LINE1":"1 48142U 21027BC  22278.53265986 -.00001847  00000-0 -10515-3 0  9993","GP_ID":"214241470","REF_FRAME":"TEME","LAUNCH_DATE":"2021-04-07","BSTAR":"-0.00010515000000","REV_AT_EPOCH":"8412","APOAPSIS":"548.217","CENTER_NAME":"EARTH","NORAD_CAT_ID":"48142","DECAY_DATE":null,"RCS_SIZE":"LARGE","COUNTRY_CODE":"US","OBJECT_NAME":"STARLINK-2485","PERIAPSIS":"546.213","RA_OF_ASC_NODE":"8.2916","ARG_OF_PERICENTER":"66.6547","EPHEMERIS_TYPE":"0"},{"SITE":"AFETR","FILE":"3592692","TLE_LINE2":"2 48143  53.0531 323.6672 0001449  57.0710 303.0418 15.06403831 84738","OBJECT_TYPE":"PAYLOAD","MEAN_MOTION_DOT":"0.00004482","TIME_SYSTEM":"UTC","MEAN_MOTION_DDOT":"0.0000000000000","MEAN_ELEMENT_THEORY":"SGP4","INCLINATION":"53.0531","MEAN_MOTION":"15.06403831","CLASSIFICATION_TYPE":"U","MEAN_ANOMALY":"303.0418","EPOCH":"2022-10-05T10:46:54.914880","ECCENTRICITY":"0.00014490","SEMIMAJOR_AXIS":"6925.337","OBJECT_ID":"2021-027BD","ELEMENT_SET_NO":"999","PERIOD":"95.592","PERIAPSIS":"546.198","OBJECT_NAME":"STARLINK-2486","COUNTRY_CODE":"US","RCS_SIZE":"LARGE","DECAY_DATE":null,"RA_OF_ASC_NODE":"323.6672","ARG_OF_PERICENTER":"57.0710","EPHEMERIS_TYPE":"0","LAUNCH_DATE":"2021-04-07","REF_FRAME":"TEME","REV_AT_EPOCH":"8473","BSTAR":"0.00031956000000","TLE_LINE1":"1 48143U 21027BD  22278.44924670  .00004482  00000-0  31956-3 0  9994","GP_ID":"214241721","NORAD_CAT_ID":"48143","CENTER_NAME":"EARTH","APOAPSIS":"548.205"},{"OBJECT_ID":"2021-027BE","PERIOD":"95.593","ELEMENT_SET_NO":"999","CLASSIFICATION_TYPE":"U","MEAN_ANOMALY":"301.1897","EPOCH":"2022-10-05T12:57:38.426976","ECCENTRICITY":"0.00015080","SEMIMAJOR_AXIS":"6925.379","MEAN_MOTION_DDOT":"0.0000000000000","MEAN_ELEMENT_THEORY":"SGP4","MEAN_MOTION":"15.06390219","INCLINATION":"53.0537","SITE":"AFETR","FILE":"3592692","TLE_LINE2":"2 48144  53.0537   8.2596 0001508  58.9240 301.1897 15.06390219 84117","OBJECT_TYPE":"PAYLOAD","MEAN_MOTION_DOT":"-0.00002760","TIME_SYSTEM":"UTC","NORAD_CAT_ID":"48144","CENTER_NAME":"EARTH","APOAPSIS":"548.288","LAUNCH_DATE":"2021-04-07","REF_FRAME":"TEME","BSTAR":"-0.00016650000000","REV_AT_EPOCH":"8411","TLE_LINE1":"1 48144U 21027BE  22278.54002809 -.00002760  00000-0 -16650-3 0  9990","GP_ID":"214242472","RA_OF_ASC_NODE":"8.2596","EPHEMERIS_TYPE":"0","ARG_OF_PERICENTER":"58.9240","PERIAPSIS":"546.199","OBJECT_NAME":"STARLINK-2487","COUNTRY_CODE":"US","DECAY_DATE":null,"RCS_SIZE":"LARGE"},{"TLE_LINE1":"1 48145U 21027BF  22278.54371040 -.00003512  00000-0 -21698-3 0  9991","GP_ID":"214241220","REF_FRAME":"TEME","LAUNCH_DATE":"2021-04-07","BSTAR":"-0.00021698000000","REV_AT_EPOCH":"8412","APOAPSIS":"548.361","CENTER_NAME":"EARTH","NORAD_CAT_ID":"48145","DECAY_DATE":null,"RCS_SIZE":"LARGE","COUNTRY_CODE":"US","OBJECT_NAME":"STARLINK-2488","PERIAPSIS":"546.079","RA_OF_ASC_NODE":"8.2413","ARG_OF_PERICENTER":"64.4586","EPHEMERIS_TYPE":"0","SEMIMAJOR_AXIS":"6925.355","EPOCH":"2022-10-05T13:02:56.578560","ECCENTRICITY":"0.00016480","CLASSIFICATION_TYPE":"U","MEAN_ANOMALY":"295.6573","ELEMENT_SET_NO":"999","PERIOD":"95.592","OBJECT_ID":"2021-027BF","OBJECT_TYPE":"PAYLOAD","MEAN_MOTION_DOT":"-0.00003512","TIME_SYSTEM":"UTC","TLE_LINE2":"2 48145  53.0554   8.2413 0001648  64.4586 295.6573 15.06397910 84129","FILE":"3592692","SITE":"AFETR","INCLINATION":"53.0554","MEAN_MOTION":"15.06397910","MEAN_ELEMENT_THEORY":"SGP4","MEAN_MOTION_DDOT":"0.0000000000000"},{"OBJECT_ID":"2021-027BG","ELEMENT_SET_NO":"999","PERIOD":"95.593","ECCENTRICITY":"0.00016180","EPOCH":"2022-10-05T17:46:55.142400","MEAN_ANOMALY":"303.0163","CLASSIFICATION_TYPE":"U","SEMIMAJOR_AXIS":"6925.367","MEAN_MOTION_DDOT":"0.0000000000000","INCLINATION":"53.0557","MEAN_MOTION":"15.06393913","MEAN_ELEMENT_THEORY":"SGP4","SITE":"AFETR","TIME_SYSTEM":"UTC","MEAN_MOTION_DOT":"0.00000185","OBJECT_TYPE":"PAYLOAD","FILE":"3593077","TLE_LINE2":"2 48146  53.0557  27.3614 0001618  57.0981 303.0163 15.06393913 83871","CENTER_NAME":"EARTH","NORAD_CAT_ID":"48146","APOAPSIS":"548.353","BSTAR":"0.00003133800000","REV_AT_EPOCH":"8387","LAUNCH_DATE":"2021-04-07","REF_FRAME":"TEME","GP_ID":"214273920","TLE_LINE1":"1 48146U 21027BG  22278.74091600  .00000185  00000-0  31338-4 0  9999","EPHEMERIS_TYPE":"0","ARG_OF_PERICENTER":"57.0981","RA_OF_ASC_NODE":"27.3614","OBJECT_NAME":"STARLINK-2489","PERIAPSIS":"546.112","RCS_SIZE":"LARGE","DECAY_DATE":null,"COUNTRY_CODE":"US"},{"GP_ID":"214274671","TLE_LINE1":"1 48147U 21027BH  22278.73860807  .00003973  00000-0  28556-3 0  9997","LAUNCH_DATE":"2021-04-07","REF_FRAME":"TEME","REV_AT_EPOCH":"8380","BSTAR":"0.00028556000000","APOAPSIS":"548.402","CENTER_NAME":"EARTH","NORAD_CAT_ID":"48147","RCS_SIZE":"LARGE","DECAY_DATE":null,"COUNTRY_CODE":"US","OBJECT_NAME":"STARLINK-2490","PERIAPSIS":"546.106","RA_OF_ASC_NODE":"32.3682","EPHEMERIS_TYPE":"0","ARG_OF_PERICENTER":"54.3736","SEMIMAJOR_AXIS":"6925.389","EPOCH":"2022-10-05T17:43:35.737248","ECCENTRICITY":"0.00016580","CLASSIFICATION_TYPE":"U","MEAN_ANOMALY":"305.7407","PERIOD":"95.593","ELEMENT_SET_NO":"999","OBJECT_ID":"2021-027BH","OBJECT_TYPE":"PAYLOAD","MEAN_MOTION_DOT":"0.00003973","TIME_SYSTEM":"UTC","FILE":"3593077","TLE_LINE2":"2 48147  53.0554  32.3682 0001658  54.3736 305.7407 15.06386786 83805","SITE":"AFETR","MEAN_MOTION":"15.06386786","INCLINATION":"53.0554","MEAN_ELEMENT_THEORY":"SGP4","MEAN_MOTION_DDOT":"0.0000000000000"},{"ELEMENT_SET_NO":"999","PERIOD":"95.593","OBJECT_ID":"2021-027BJ","SEMIMAJOR_AXIS":"6925.378","ECCENTRICITY":"0.00017230","EPOCH":"2022-10-05T13:48:03.854304","MEAN_ANOMALY":"292.4618","CLASSIFICATION_TYPE":"U","INCLINATION":"53.0547","MEAN_MOTION":"15.06390311","MEAN_ELEMENT_THEORY":"SGP4","MEAN_MOTION_DDOT":"0.0000000000000","TIME_SYSTEM":"UTC","OBJECT_TYPE":"PAYLOAD","MEAN_MOTION_DOT":"-0.00002700","FILE":"3592805","TLE_LINE2":"2 48148  53.0547  28.0830 0001723  67.6554 292.4618 15.06390311 83448","SITE":"AFETR","APOAPSIS":"548.436","CENTER_NAME":"EARTH","NORAD_CAT_ID":"48148","TLE_LINE1":"1 48148U 21027BJ  22278.57504461 -.00002700  00000-0 -16248-3 0  9995","GP_ID":"214247945","REV_AT_EPOCH":"8344","BSTAR":"-0.00016248000000","REF_FRAME":"TEME","LAUNCH_DATE":"2021-04-07","ARG_OF_PERICENTER":"67.6554","EPHEMERIS_TYPE":"0","RA_OF_ASC_NODE":"28.0830","RCS_SIZE":"LARGE","DECAY_DATE":null,"COUNTRY_CODE":"US","OBJECT_NAME":"STARLINK-2491","PERIAPSIS":"546.050"},{"EPHEMERIS_TYPE":"0","ARG_OF_PERICENTER":"54.6340","RA_OF_ASC_NODE":"7.4459","PERIAPSIS":"546.117","OBJECT_NAME":"STARLINK-2492","COUNTRY_CODE":"US","DECAY_DATE":null,"RCS_SIZE":"LARGE","NORAD_CAT_ID":"48149","CENTER_NAME":"EARTH","APOAPSIS":"548.342","REV_AT_EPOCH":"8414","BSTAR":"-0.00017469000000","REF_FRAME":"TEME","LAUNCH_DATE":"2021-04-07","TLE_LINE1":"1 48149U 21027BK  22278.72063833 -.00002882  00000-0 -17469-3 0  9993","GP_ID":"214274170","MEAN_MOTION_DDOT":"0.0000000000000","MEAN_ELEMENT_THEORY":"SGP4","MEAN_MOTION":"15.06394826","INCLINATION":"53.0565","SITE":"AFETR","FILE":"3593077","TLE_LINE2":"2 48149  53.0565   7.4459 0001606  54.6340 305.4799 15.06394826 84144","TIME_SYSTEM":"UTC","OBJECT_TYPE":"PAYLOAD","MEAN_MOTION_DOT":"-0.00002882","OBJECT_ID":"2021-027BK","PERIOD":"95.592","ELEMENT_SET_NO":"999","MEAN_ANOMALY":"305.4799","CLASSIFICATION_TYPE":"U","ECCENTRICITY":"0.00016060","EPOCH":"2022-10-05T17:17:43.151712","SEMIMAJOR_AXIS":"6925.364"},{"PERIAPSIS":"546.136","OBJECT_NAME":"STARLINK-2493","COUNTRY_CODE":"US","RCS_SIZE":"LARGE","DECAY_DATE":null,"RA_OF_ASC_NODE":"8.3087","EPHEMERIS_TYPE":"0","ARG_OF_PERICENTER":"58.4707","LAUNCH_DATE":"2021-04-07","REF_FRAME":"TEME","BSTAR":"0.00003272300000","REV_AT_EPOCH":"8412","TLE_LINE1":"1 48150U 21027BL  22278.52527409  .00000206  00000-0  32723-4 0  9994","GP_ID":"214241471","NORAD_CAT_ID":"48150","CENTER_NAME":"EARTH","APOAPSIS":"548.285","SITE":"AFETR","FILE":"3592692","TLE_LINE2":"2 48150  53.0545   8.3087 0001551  58.4707 301.6433 15.06401012 84126","MEAN_MOTION_DOT":"0.00000206","OBJECT_TYPE":"PAYLOAD","TIME_SYSTEM":"UTC","MEAN_MOTION_DDOT":"0.0000000000000","MEAN_ELEMENT_THEORY":"SGP4","MEAN_MOTION":"15.06401012","INCLINATION":"53.0545","CLASSIFICATION_TYPE":"U","MEAN_ANOMALY":"301.6433","EPOCH":"2022-10-05T12:36:23.681376","ECCENTRICITY":"0.00015510","SEMIMAJOR_AXIS":"6925.345","OBJECT_ID":"2021-027BL","PERIOD":"95.592","ELEMENT_SET_NO":"999"},{"SEMIMAJOR_AXIS":"6925.342","MEAN_ANOMALY":"294.9015","CLASSIFICATION_TYPE":"U","ECCENTRICITY":"0.00017200","EPOCH":"2022-10-05T11:06:10.676448","PERIOD":"95.592","ELEMENT_SET_NO":"999","OBJECT_ID":"2021-027BM","FILE":"3592692","TLE_LINE2":"2 48151  53.0553   8.5989 0001720  65.2152 294.9015 15.06402022 84118","TIME_SYSTEM":"UTC","MEAN_MOTION_DOT":"-0.00000929","OBJECT_TYPE":"PAYLOAD","SITE":"AFETR","MEAN_ELEMENT_THEORY":"SGP4","MEAN_MOTION":"15.06402022","INCLINATION":"53.0553","MEAN_MOTION_DDOT":"0.0000000000000","TLE_LINE1":"1 48151U 21027BM  22278.46262357 -.00000929  00000-0 -43470-4 0  9991","GP_ID":"214241722","BSTAR":"-0.00004347000000","REV_AT_EPOCH":"8411","REF_FRAME":"TEME","LAUNCH_DATE":"2021-04-07","APOAPSIS":"548.399","NORAD_CAT_ID":"48151","CENTER_NAME":"EARTH","COUNTRY_CODE":"US","DECAY_DATE":null,"RCS_SIZE":"LARGE","PERIAPSIS":"546.016","OBJECT_NAME":"STARLINK-2503","EPHEMERIS_TYPE":"0","ARG_OF_PERICENTER":"65.2152","RA_OF_ASC_NODE":"8.5989"}];
